[{"OBJECT_NAME":"STARLINK-3982","OBJECT_ID":"2022-052S","EPOCH":"2026-02-07T04:09:08.650656","MEAN_MOTION":15.45308515,"ECCENTRICITY":0.00012719,"INCLINATION":53.2115,"RA_OF_ASC_NODE":15.3377,"ARG_OF_PERICENTER":163.5439,"MEAN_ANOMALY":196.5611,"EPHEMERIS_TYPE":0,"CLASSIFICATION_TYPE":"U","NORAD_CAT_ID":52614,"ELEMENT_SET_NO":999,"REV_AT_EPOCH":20682,"BSTAR":0.0019162371,"MEAN_MOTION_DOT":0.00093457,"MEAN_MOTION_DDOT":0},{"OBJECT_NAME":"STARLINK-4011","OBJECT_ID":"2022-052T","EPOCH":"2026-02-07T06:30:48.569472","MEAN_MOTION":15.08836345,"ECCENTRICITY":0.00015399,"INCLINATION":53.2167,"RA_OF_ASC_NODE":60.6745,"ARG_OF_PERICENTER":90.2953,"MEAN_ANOMALY":269.8215,"EPHEMERIS_TYPE":0,"CLASSIFICATION_TYPE":"U","NORAD_CAT_ID":52615,"ELEMENT_SET_NO":999,"REV_AT_EPOCH":20618,"BSTAR":7.0214e-8,"MEAN_MOTION_DOT":-2.87e-6,"MEAN_MOTION_DDOT":0},{"OBJECT_NAME":"STARLINK-3996","OBJECT_ID":"2022-052V","EPOCH":"2026-02-07T06:35:26.769696","MEAN_MOTION":15.08841452,"ECCENTRICITY":0.00016616,"INCLINATION":53.2183,"RA_OF_ASC_NODE":45.658,"ARG_OF_PERICENTER":79.0616,"MEAN_ANOMALY":281.0563,"EPHEMERIS_TYPE":0,"CLASSIFICATION_TYPE":"U","NORAD_CAT_ID":52617,"ELEMENT_SET_NO":999,"REV_AT_EPOCH":20639,"BSTAR":6.2080246e-5,"MEAN_MOTION_DOT":7.0e-6,"MEAN_MOTION_DDOT":0},{"OBJECT_NAME":"STARLINK-3983","OBJECT_ID":"2022-052W","EPOCH":"2026-02-07T06:40:44.497920","MEAN_MOTION":15.08838808,"ECCENTRICITY":0.00012664,"INCLINATION":53.2177,"RA_OF_ASC_NODE":45.6418,"ARG_OF_PERICENTER":80.7625,"MEAN_ANOMALY":279.3511,"EPHEMERIS_TYPE":0,"CLASSIFICATION_TYPE":"U","NORAD_CAT_ID":52618,"ELEMENT_SET_NO":999,"REV_AT_EPOCH":20639,"BSTAR":3.8239568e-5,"MEAN_MOTION_DOT":3.21e-6,"MEAN_MOTION_DDOT":0},{"OBJECT_NAME":"STARLINK-3741","OBJECT_ID":"2022-052X","EPOCH":"2026-02-07T06:30:08.546400","MEAN_MOTION":15.08850975,"ECCENTRICITY":0.0001378,"INCLINATION":53.2185,"RA_OF_ASC_NODE":45.6632,"ARG_OF_PERICENTER":87.3528,"MEAN_ANOMALY":272.7622,"EPHEMERIS_TYPE":0,"CLASSIFICATION_TYPE":"U","NORAD_CAT_ID":52619,"ELEMENT_SET_NO":999,"REV_AT_EPOCH":20639,"BSTAR":-4.5156346e-5,"MEAN_MOTION_DOT":-1.007e-5,"MEAN_MOTION_DDOT":0},{"OBJECT_NAME":"STARLINK-3975","OBJECT_ID":"2022-052Y","EPOCH":"2026-02-07T06:25:30.703872","MEAN_MOTION":15.0885013,"ECCENTRICITY":0.00010663,"INCLINATION":53.2188,"RA_OF_ASC_NODE":60.6945,"ARG_OF_PERICENTER":101.5007,"MEAN_ANOMALY":258.6105,"EPHEMERIS_TYPE":0,"CLASSIFICATION_TYPE":"U","NORAD_CAT_ID":52620,"ELEMENT_SET_NO":999,"REV_AT_EPOCH":20618,"BSTAR":0.00016035175,"MEAN_MOTION_DOT":2.266e-5,"MEAN_MOTION_DDOT":0},{"OBJECT_NAME":"STARLINK-3984","OBJECT_ID":"2022-052Z","EPOCH":"2026-02-07T06:19:33.377664","MEAN_MOTION":15.08839545,"ECCENTRICITY":0.00012998,"INCLINATION":53.2174,"RA_OF_ASC_NODE":45.7071,"ARG_OF_PERICENTER":108.6571,"MEAN_ANOMALY":251.4562,"EPHEMERIS_TYPE":0,"CLASSIFICATION_TYPE":"U","NORAD_CAT_ID":52621,"ELEMENT_SET_NO":999,"REV_AT_EPOCH":20639,"BSTAR":5.6257338e-5,"MEAN_MOTION_DOT":6.08e-6,"MEAN_MOTION_DDOT":0},{"OBJECT_NAME":"STARLINK-4008","OBJECT_ID":"2022-052AA","EPOCH":"2026-02-07T07:07:54.477984","MEAN_MOTION":15.0883377,"ECCENTRICITY":0.00013789,"INCLINATION":53.2172,"RA_OF_ASC_NODE":60.5553,"ARG_OF_PERICENTER":86.3467,"MEAN_ANOMALY":273.7683,"EPHEMERIS_TYPE":0,"CLASSIFICATION_TYPE":"U","NORAD_CAT_ID":52622,"ELEMENT_SET_NO":999,"REV_AT_EPOCH":20619,"BSTAR":6.0544259e-5,"MEAN_MOTION_DOT":6.76e-6,"MEAN_MOTION_DDOT":0},{"OBJECT_NAME":"STARLINK-3986","OBJECT_ID":"2022-052AB","EPOCH":"2026-02-07T06:14:14.983296","MEAN_MOTION":15.0883157,"ECCENTRICITY":0.00010937,"INCLINATION":53.2188,"RA_OF_ASC_NODE":45.7131,"ARG_OF_PERICENTER":90.1624,"MEAN_ANOMALY":269.9494,"EPHEMERIS_TYPE":0,"CLASSIFICATION_TYPE":"U","NORAD_CAT_ID":52623,"ELEMENT_SET_NO":999,"REV_AT_EPOCH":20639,"BSTAR":-3.4665963e-5,"MEAN_MOTION_DOT":-8.39e-6,"MEAN_MOTION_DDOT":0},{"OBJECT_NAME":"STARLINK-3988","OBJECT_ID":"2022-052AD","EPOCH":"2026-02-07T07:44:20.376384","MEAN_MOTION":15.08841734,"ECCENTRICITY":0.00020733,"INCLINATION":53.2175,"RA_OF_ASC_NODE":45.4417,"ARG_OF_PERICENTER":104.0297,"MEAN_ANOMALY":256.0926,"EPHEMERIS_TYPE":0,"CLASSIFICATION_TYPE":"U","NORAD_CAT_ID":52625,"ELEMENT_SET_NO":999,"REV_AT_EPOCH":20640,"BSTAR":3.1527991e-5,"MEAN_MOTION_DOT":2.14e-6,"MEAN_MOTION_DDOT":0},{"OBJECT_NAME":"STARLINK-3990","OBJECT_ID":"2022-052AE","EPOCH":"2026-02-07T06:24:49.351968","MEAN_MOTION":15.08852348,"ECCENTRICITY":0.00016108,"INCLINATION":53.2199,"RA_OF_ASC_NODE":45.6946,"ARG_OF_PERICENTER":92.151,"MEAN_ANOMALY":267.9667,"EPHEMERIS_TYPE":0,"CLASSIFICATION_TYPE":"U","NORAD_CAT_ID":52626,"ELEMENT_SET_NO":999,"REV_AT_EPOCH":20639,"BSTAR":0.00014037842,"MEAN_MOTION_DOT":1.948e-5,"MEAN_MOTION_DDOT":0},{"OBJECT_NAME":"STARLINK-3992","OBJECT_ID":"2022-052AF","EPOCH":"2026-02-07T05:53:03.260832","MEAN_MOTION":15.08839161,"ECCENTRICITY":0.00012219,"INCLINATION":53.2174,"RA_OF_ASC_NODE":45.7925,"ARG_OF_PERICENTER":75.2553,"MEAN_ANOMALY":284.8574,"EPHEMERIS_TYPE":0,"CLASSIFICATION_TYPE":"U","NORAD_CAT_ID":52627,"ELEMENT_SET_NO":999,"REV_AT_EPOCH":20640,"BSTAR":5.0038077e-5,"MEAN_MOTION_DOT":5.09e-6,"MEAN_MOTION_DDOT":0},{"OBJECT_NAME":"STARLINK-4001","OBJECT_ID":"2022-052AG","EPOCH":"2026-02-07T07:02:36.573504","MEAN_MOTION":15.08845573,"ECCENTRICITY":0.00014253,"INCLINATION":53.2163,"RA_OF_ASC_NODE":60.5742,"ARG_OF_PERICENTER":87.1199,"MEAN_ANOMALY":272.9956,"EPHEMERIS_TYPE":0,"CLASSIFICATION_TYPE":"U","NORAD_CAT_ID":52628,"ELEMENT_SET_NO":999,"REV_AT_EPOCH":20619,"BSTAR":0.00032055528,"MEAN_MOTION_DOT":4.818e-5,"MEAN_MOTION_DDOT":0},{"OBJECT_NAME":"STARLINK-4022","OBJECT_ID":"2022-052AH","EPOCH":"2026-02-07T07:17:51.766368","MEAN_MOTION":15.08825082,"ECCENTRICITY":0.00016417,"INCLINATION":53.2186,"RA_OF_ASC_NODE":45.4894,"ARG_OF_PERICENTER":89.8933,"MEAN_ANOMALY":270.2247,"EPHEMERIS_TYPE":0,"CLASSIFICATION_TYPE":"U","NORAD_CAT_ID":52629,"ELEMENT_SET_NO":999,"REV_AT_EPOCH":20640,"BSTAR":-0.00010173621,"MEAN_MOTION_DOT":-1.906e-5,"MEAN_MOTION_DDOT":0},{"OBJECT_NAME":"STARLINK-3989","OBJECT_ID":"2022-052AJ","EPOCH":"2026-02-07T06:03:39.328128","MEAN_MOTION":15.08832598,"ECCENTRICITY":0.0001418,"INCLINATION":53.2187,"RA_OF_ASC_NODE":45.7577,"ARG_OF_PERICENTER":87.9157,"MEAN_ANOMALY":272.1998,"EPHEMERIS_TYPE":0,"CLASSIFICATION_TYPE":"U","NORAD_CAT_ID":52630,"ELEMENT_SET_NO":999,"REV_AT_EPOCH":20639,"BSTAR":-1.0723292e-5,"MEAN_MOTION_DOT":-4.59e-6,"MEAN_MOTION_DDOT":0},{"OBJECT_NAME":"STARLINK-3794","OBJECT_ID":"2022-052AK","EPOCH":"2026-02-07T07:19:12.763776","MEAN_MOTION":15.0883445,"ECCENTRICITY":0.00017829,"INCLINATION":53.2184,"RA_OF_ASC_NODE":45.538,"ARG_OF_PERICENTER":89.8251,"MEAN_ANOMALY":270.2946,"EPHEMERIS_TYPE":0,"CLASSIFICATION_TYPE":"U","NORAD_CAT_ID":52631,"ELEMENT_SET_NO":999,"REV_AT_EPOCH":20641,"BSTAR":-4.3819766e-5,"MEAN_MOTION_DOT":-9.85e-6,"MEAN_MOTION_DDOT":0}]
