STARLINK-3982           
1 52614U 22052S   26038.17301679  .00093457  00000+0  19162-2 0  9990
2 52614  53.2115  15.3377 0001271 163.5439 196.5611 15.45308515206829
STARLINK-4011           
1 52615U 22052T   26038.27139548 -.00000287  00000+0  70214-7 0  9996
2 52615  53.2167  60.6745 0001539  90.2953 269.8215 15.08836345206182
STARLINK-3996           
1 52617U 22052V   26038.27461539  .00000700  00000+0  62080-4 0  9994
2 52617  53.2183  45.6580 0001661  79.0616 281.0563 15.08841452206399
STARLINK-3983           
1 52618U 22052W   26038.27829280  .00000321  00000+0  38240-4 0  9996
2 52618  53.2177  45.6418 0001266  80.7625 279.3511 15.08838808206397
STARLINK-3741           
1 52619U 22052X   26038.27093225 -.00001007  00000+0 -45156-4 0  9997
2 52619  53.2185  45.6632 0001378  87.3528 272.7622 15.08850975206393
STARLINK-3975           
1 52620U 22052Y   26038.26771648  .00002266  00000+0  16035-3 0  9999
2 52620  53.2188  60.6945 0001066 101.5007 258.6105 15.08850130206186
STARLINK-3984           
1 52621U 22052Z   26038.26358076  .00000608  00000+0  56257-4 0  9995
2 52621  53.2174  45.7071 0001299 108.6571 251.4562 15.08839545206396
STARLINK-4008           
1 52622U 22052AA  26038.29715831  .00000676  00000+0  60544-4 0  9994
2 52622  53.2172  60.5553 0001378  86.3467 273.7683 15.08833770206192
STARLINK-3986           
1 52623U 22052AB  26038.25989564 -.00000839  00000+0 -34666-4 0  9996
2 52623  53.2188  45.7131 0001093  90.1624 269.9494 15.08831570206394
STARLINK-3988           
1 52625U 22052AD  26038.32245806  .00000214  00000+0  31528-4 0  9999
2 52625  53.2175  45.4417 0002073 104.0297 256.0926 15.08841734206408
STARLINK-3990           
1 52626U 22052AE  26038.26723787  .00001948  00000+0  14038-3 0  9993
2 52626  53.2199  45.6946 0001610  92.1510 267.9667 15.08852348206399
STARLINK-3992           
1 52627U 22052AF  26038.24517663  .00000509  00000+0  50038-4 0  9999
2 52627  53.2174  45.7925 0001221  75.2553 284.8574 15.08839161206403
STARLINK-4001           
1 52628U 22052AG  26038.29347886  .00004818  00000+0  32056-3 0  9999
2 52628  53.2163  60.5742 0001425  87.1199 272.9956 15.08845573206190
STARLINK-4022           
1 52629U 22052AH  26038.30407137 -.00001906  00000+0 -10174-3 0  9992
2 52629  53.2186  45.4894 0001641  89.8933 270.2247 15.08825082206402
STARLINK-3989           
1 52630U 22052AJ  26038.25253852 -.00000459  00000+0 -10723-4 0  9994
2 52630  53.2187  45.7577 0001418  87.9157 272.1998 15.08832598206397
STARLINK-3794           
1 52631U 22052AK  26038.30500884 -.00000985  00000+0 -43820-4 0  9999
2 52631  53.2184  45.5380 0001782  89.8251 270.2946 15.08834450206419
